#aV2019  6  6  0  0  0.00000000     288 DD+AD WGS84 FIT  NGA
## 2056 345600.00000000   300.00000000 58640 0.0000000000000
+   31     1  2  3  5  6  7  8  9 10 11 12 13 14 15 16 17 18
+         19 20 21 22 23 24 25 26 27 28 29 30 31 32  0  0  0
+          0  0  0  0  0  0  0  0  0  0  0  0  0  0  0  0  0
+          0  0  0  0  0  0  0  0  0  0  0  0  0  0  0  0  0
+          0  0  0  0  0  0  0  0  0  0  0  0  0  0  0  0  0
++         2  2  2  2  2  2  2  2  2  2  2  2  2  2  2  2  2
++         2  2  2  2  2  2  2  2  2  2  2  2  2  2  0  0  0
++         0  0  0  0  0  0  0  0  0  0  0  0  0  0  0  0  0
++         0  0  0  0  0  0  0  0  0  0  0  0  0  0  0  0  0
++         0  0  0  0  0  0  0  0  0  0  0  0  0  0  0  0  0
%c cc cc ccc ccc cccc cccc cccc cccc ccccc ccccc ccccc ccccc
%c cc cc ccc ccc cccc cccc cccc cccc ccccc ccccc ccccc ccccc
%f  0.0000000  0.000000000  0.00000000000  0.000000000000000
%f  0.0000000  0.000000000  0.00000000000  0.000000000000000
%i    0    0    0    0      0      0      0      0         0
%i    0    0    0    0      0      0      0      0         0
/*      NGA, ST. LOUIS,MO.                                  
/*   EPHEMERIS COMPUTED FROM 2 DAYS OF DATA                 
/*   EPOCHA v5 SMOOTHER                                     
/*   G1762 IERS2010 SATAF SATAPC                            
*  2019  6  6  6 40  0.00000000
P  1 -14381.549305   3468.677612  21867.554053    -34.101343                    
V  1  -6102.910831 -27508.796327    662.647323     -0.094655                    
P  2  14212.244685  18661.331063 -11995.908750   -230.734644                    
V  2   2021.776069  16218.205615  26159.408960     -0.089880                    
P  3 -22064.422192  10723.760187  10028.009860    186.419502                    
V  3   7753.454501 -10514.861820  28276.697286     -0.010962                    
P  5  14506.532737   7112.075034 -21232.226172      0.660518                    
V  5 -18823.941870  18922.835524  -6354.863294     -0.001634                    
P  6   6435.459285  25728.062843   -976.831655    185.687971                    
V  6  -2035.386664   1778.466794  32075.731956     -0.104759                    
P  7  -8578.992470  18000.156834 -17041.756527    -38.870540                    
V  7  -6645.371036 -21450.529929 -19492.895123     -0.076186                    
P  8 -25908.974048  -4831.914809   4135.793554   -146.359526                    
V  8  -4294.759907  -3695.243226 -31253.213153     -0.014965                    
P  9 -13279.923994  11041.841397 -20219.123199    397.202256                    
V  9 -24218.389071  -8417.744855  11320.193947     -0.075247                    
P 10   6285.571064 -20521.845320  15578.844406     24.717422                    
V 10  15905.094514 -11872.428924 -22340.989153     -0.115770                    
P 11 -18284.039125    161.069043  18655.153491   -590.803028                    
V 11 -13755.584893 -21085.659417 -13190.600144      0.084620                    
P 12  22369.015361  -8182.423783  11355.585811    235.746225                    
V 12 -10296.647515  10789.984749  27698.539125     -0.035142                    
P 13  22889.213869  13100.586456  -3471.311127    -60.363452                    
V 13  -4927.343628    518.653897 -31470.982302      0.017449                    
P 14 -12538.960319 -17310.753287  16207.130512    -77.318107                    
V 14  19097.438295   5890.294353  21316.638245      0.016561                    
P 15  26252.516042   2188.786022   4492.713209   -308.733049                    
V 15   5130.034057   4655.727387 -30059.396705      0.022589                    
P 16 -14012.653855  -7370.976073 -21584.942233    -45.841788                    
V 16  21087.967983 -16575.152113  -7680.053707     -0.030372                    
P 17   3910.980987  16371.725787  20975.163575     67.006123                    
V 17 -24194.487992  -8454.681866  11246.750255      0.063962                    
P 18 -16163.886361  -6498.980018  19593.884631     59.597265                    
V 18  -5643.635611 -25357.343699 -12619.513403      0.031815                    
P 19  11464.228886  16973.210473  16565.184328   -310.039677                    
V 19 -20450.648964  -7114.166825  21126.049653      0.046654                    
P 20  12684.710578 -22282.856469   6514.682982    525.206254                    
V 20   8348.634344  -4013.199398 -29670.172848      0.002445                    
P 21   3227.643805 -22584.990876 -12932.930266   -178.555645                    
V 21   7394.885514  16296.791988 -24936.464895      0.072703                    
P 22 -20819.064062   4531.851669  16042.817107   -712.704784                    
V 22  11937.758372 -16346.760450  20488.643388     -0.058995                    
P 23 -23498.885967   2316.003579 -12208.113616   -183.018039                    
V 23 -14546.034827  -6981.510586  25555.246488      0.016632                    
P 24  15957.946219   -254.056743  21107.582952    -67.089372                    
V 24   6871.833349  26331.786937  -4515.253476     -0.004571                    
P 25  19554.609809 -17767.385523     43.235700   -763.226957                    
V 25   1616.202135   2236.978558  32127.938371     -0.034092                    
P 26  -5403.316592 -15476.336938 -20885.757921    219.966251                    
V 26  19720.436482 -17788.025424   8261.564818      0.094916                    
P 27 -22544.526775 -12315.108274  -7450.152364   -150.552629                    
V 27   9355.032047    975.709250 -30074.366190     -0.099067                    
P 28  -8294.000810  19905.980163  16174.189320    767.631264                    
V 28 -16141.122909  10738.560138 -22244.640181     -0.002229                    
P 29  17419.193166  -6693.701919 -18939.500357    183.436630                    
V 29  21905.722138   9636.533227  16763.408079     -0.094304                    
P 30  -2066.661961  24878.194134  -8752.179072   -118.534624                    
V 30  -5211.266581 -10489.884128 -28698.092363     -0.072719                    
P 31  -6792.332541 -25278.559276  -2736.901563     33.040861                    
V 31   2476.120161  -4056.833658  31781.638093     -0.026479                    
P 32  -6182.875254 -16587.861086  19896.338814    -55.569995                    
V 32  24331.551869   6308.771826  12742.495143      0.162947                    
EOF
